NORAD_CAT_ID,OBJECT_NAME,OBJECT_TYPE,EPOCH,MEAN_MOTION,ECCENTRICITY,INCLINATION,RA_OF_ASC_NODE,ARG_OF_PERICENTER,MEAN_ANOMALY,BSTAR,MEAN_MOTION_DOT,MEAN_MOTION_DDOT,TLE_LINE0,TLE_LINE1,TLE_LINE2,SEMIMAJOR_AXIS,PERIOD,APOGEE,PERIGEE,DECAYED
52992.0,STARLINK-4269,PAYLOAD,2022-11-27 17:14:25,15.08837425,0.0002354,53.2178,82.0395,35.5428,324.572,-2.1564e-05,-6.32e-06,0.0,0 STARLINK-4269,1 52992U 22076G   22331.71835496 -.00000632  00000-0 -21564-4 0  9993,2 52992  53.2178  82.0395 0002354  35.5428 324.5720 15.08837425 22328,6917.888000000001,95.438,541.382,538.125,0.0
52992.0,STARLINK-4269,PAYLOAD,2022-11-28 09:08:17,15.08831773,0.0002338,53.2182,79.0653,37.3752,322.7403,-3.5332e-05,-8.51e-06,0.0,0 STARLINK-4269,1 52992U 22076G   22332.38076178 -.00000851  00000-0 -35332-4 0  9992,2 52992  53.2182  79.0653 0002338  37.3752 322.7403 15.08831773 22427,6917.906,95.438,541.388,538.153,0.0
52992.0,STARLINK-4269,PAYLOAD,2022-11-28 13:54:26,15.08839171,0.0002383,53.2184,78.1734,39.8165,320.3001,-1.2164e-05,-4.82e-06,0.0,0 STARLINK-4269,1 52992U 22076G   22332.57947682 -.00000482  00000-0 -12164-4 0  9998,2 52992  53.2184  78.1734 0002383  39.8165 320.3001 15.08839171 22455,6917.8830000000025,95.438,541.396,538.099,0.0
52992.0,STARLINK-4269,PAYLOAD,2022-11-29 08:59:03,15.08840211,0.0002381,53.2186,74.6049,38.7225,321.3937,0.0001434,1.995e-05,0.0,0 STARLINK-4269,1 52992U 22076G   22333.37435141  .00001995  00000-0  14340-3 0  9994,2 52992  53.2186  74.6049 0002381  38.7225 321.3937 15.08840211 22108,6917.88,95.438,541.3919999999998,538.0980000000002,0.0
52992.0,STARLINK-4269,PAYLOAD,2022-11-29 16:56:00,15.0883649,0.0002386,53.2185,73.1179,37.7089,322.407,0.00010579,1.396e-05,0.0,0 STARLINK-4269,1 52992U 22076G   22333.70555625  .00001396  00000-0  10579-3 0  9996,2 52992  53.2185  73.1179 0002386  37.7089 322.4070 15.08836490 22628,6917.891,95.438,541.4069999999998,538.106,0.0
52992.0,STARLINK-4269,PAYLOAD,2022-11-30 08:49:52,15.08831977,0.0002404,53.2195,70.146,34.1145,326.0001,6.1173e-05,6.85e-06,0.0,0 STARLINK-4269,1 52992U 22076G   22334.36796401  .00000685  00000-0  61173-4 0  9995,2 52992  53.2195  70.1460 0002404  34.1145 326.0001 15.08831977 22724,6917.905,95.438,541.433,538.107,0.0
52992.0,STARLINK-4269,PAYLOAD,2022-11-30 13:36:01,15.08833737,0.0002461,53.2195,69.25399999999999,38.934,321.1829,3.8332e-05,3.22e-06,0.0,0 STARLINK-4269,1 52992U 22076G   22334.56668458  .00000322  00000-0  38332-4 0  9996,2 52992  53.2195  69.2540 0002461  38.9340 321.1829 15.08833737 22285,6917.9,95.438,541.467,538.062,0.0
52992.0,STARLINK-4269,PAYLOAD,2022-11-30 15:11:24,15.08834977,0.0002472,53.2194,68.9564,40.5395,319.5781,6.8578e-05,8.03e-06,0.0,0 STARLINK-4269,1 52992U 22076G   22334.63292372  .00000803  00000-0  68578-4 0  9991,2 52992  53.2194  68.9564 0002472  40.5395 319.5781 15.08834977 22293,6917.896,95.438,541.471,538.0509999999998,0.0
52992.0,STARLINK-4269,PAYLOAD,2022-12-01 13:26:48,15.08837952,0.0002512,53.2207,64.7951,53.2413,306.8809,8.5839e-05,1.078e-05,0.0,0 STARLINK-4269,1 52992U 22076G   22335.56028251  .00001078  00000-0  85839-4 0  9991,2 52992  53.2207  64.7951 0002512  53.2413 306.8809 15.08837952 22431,6917.887,95.438,541.489,538.014,0.0
52992.0,STARLINK-4269,PAYLOAD,2022-12-01 16:37:34,15.08839617,0.0002723999999999,53.2196,64.1987,34.0816,326.0351,0.00013956,1.933e-05,0.0,0 STARLINK-4269,1 52992U 22076G   22335.69276085  .00001933  00000-0  13956-3 0  9995,2 52992  53.2196  64.1987 0002724  34.0816 326.0351 15.08839617 22920,6917.882,95.438,541.631,537.862,0.0
52992.0,STARLINK-4269,PAYLOAD,2022-12-02 18:03:44,15.08843924,0.0002575,53.2193,59.4409,36.1864,323.9302,9.5382e-05,1.23e-05,0.0,0 STARLINK-4269,1 52992U 22076G   22336.75259784  .00001230  00000-0  95382-4 0  9994,2 52992  53.2193  59.4409 0002575  36.1864 323.9302 15.08843924 22617,6917.868,95.437,541.515,537.952,0.0
52992.0,STARLINK-4269,PAYLOAD,2022-12-03 00:25:17,15.08840952,0.0002576,53.2188,58.2508,34.3616,325.7543,0.00013921,1.928e-05,0.0,0 STARLINK-4269,1 52992U 22076G   22337.01755888  .00001928  00000-0  13921-3 0  9992,2 52992  53.2188  58.2508 0002576  34.3616 325.7543 15.08840952 23126,6917.877,95.437,541.525,537.96,0.0
52992.0,STARLINK-4269,PAYLOAD,2022-12-03 09:57:36,15.08836286,0.0002447,53.2189,56.4664,31.3154,328.7984,-1.7772000000000002e-05,-5.71e-06,0.0,0 STARLINK-4269,1 52992U 22076G   22337.41500618 -.00000571  00000-0 -17772-4 0  9999,2 52992  53.2189  56.4664 0002447  31.3154 328.7984 15.08836286 23184,6917.892,95.438,541.45,538.064,0.0
52992.0,STARLINK-4269,PAYLOAD,2022-12-03 13:08:22,15.0883889,0.0002426,53.2188,55.8716,31.8427,328.2712,-1.1305e-05,-4.68e-06,0.0,0 STARLINK-4269,1 52992U 22076G   22337.54748394 -.00000468  00000-0 -11305-4 0  9999,2 52992  53.2188  55.8716 0002426  31.8427 328.2712 15.08838890 22736,6917.884,95.438,541.427,538.071,0.0
52992.0,STARLINK-4269,PAYLOAD,2022-12-03 16:19:08,15.08840986,0.000262,53.2189,55.277,29.4216,330.6923,3.7016e-06,-2.3e-06,0.0,0 STARLINK-4269,1 52992U 22076G   22337.67996198 -.00000230  00000-0  37016-5 0  9994,2 52992  53.2189  55.2770 0002620  29.4216 330.6923 15.08840986 22758,6917.877,95.437,541.555,537.93,0.0
52992.0,STARLINK-4269,PAYLOAD,2022-12-04 11:23:46,15.08836692,0.0002471,53.2186,51.7082,34.5727,325.5425,-6.990499999999999e-06,-4e-06,0.0,0 STARLINK-4269,1 52992U 22076G   22338.47484723 -.00000400  00000-0 -69905-5 0  9991,2 52992  53.2186  51.7082 0002471  34.5727 325.5425 15.08836692 23345,6917.891,95.438,541.465,538.0459999999998,0.0
52992.0,STARLINK-4269,PAYLOAD,2022-12-04 12:59:09,15.08835928,0.0002503,53.2187,51.4113,33.4389,326.6761,-5.1776e-06,-3.71e-06,0.0,0 STARLINK-4269,1 52992U 22076G   22338.54108774 -.00000371  00000-0 -51776-5 0  9992,2 52992  53.2187  51.4113 0002503  33.4389 326.6761 15.08835928 22880,6917.893,95.438,541.489,538.026,0.0
52992.0,STARLINK-4269,PAYLOAD,2022-12-04 19:20:42,15.08841478,0.000248,53.2188,50.2219,32.1662,327.9481,6.7252e-05,7.82e-06,0.0,0 STARLINK-4269,1 52992U 22076G   22338.80604253  .00000782  00000-0  67252-4 0  9993,2 52992  53.2188  50.2219 0002480  32.1662 327.9481 15.08841478 22924,6917.876,95.437,541.457,538.025,0.0
52992.0,STARLINK-4269,PAYLOAD,2022-12-05 01:42:14,15.08847669,0.0002509,53.2189,49.0325,31.9128,328.2015,0.00011932,1.612e-05,0.0,0 STARLINK-4269,1 52992U 22076G   22339.07099734  .00001612  00000-0  11932-3 0  9991,2 52992  53.2189  49.0325 0002509  31.9128 328.2015 15.08847669 23437,6917.857,95.437,541.4580000000002,537.986,0.0
52992.0,STARLINK-4269,PAYLOAD,2022-12-05 11:14:33,15.08840329,0.0002984,53.218,47.2486,22.8641,337.2483,7.2067e-05,8.59e-06,0.0,0 STARLINK-4269,1 52992U 22076G   22339.46844417  .00000859  00000-0  72067-4 0  9999,2 52992  53.2180  47.2486 0002984  22.8641 337.2483 15.08840329 23493,6917.879,95.438,541.809,537.68,0.0
52992.0,STARLINK-4269,PAYLOAD,2022-12-05 16:00:42,15.08842393,0.0002459,53.218,46.3557,32.0347,328.0794,0.00015746,2.219e-05,0.0,0 STARLINK-4269,1 52992U 22076G   22339.66716127  .00002219  00000-0  15746-3 0  9999,2 52992  53.2180  46.3557 0002459  32.0347 328.0794 15.08842393 23053,6917.873000000001,95.437,541.439,538.0369999999998,0.0
52992.0,STARLINK-4269,PAYLOAD,2022-12-05 23:57:37,15.08855007,0.0002151,53.2172,44.8694,30.8598,329.2521,0.00015919,2.247e-05,0.0,0 STARLINK-4269,1 52992U 22076G   22339.99835146  .00002247  00000-0  15919-3 0  9991,2 52992  53.2172  44.8694 0002151  30.8598 329.2521 15.08855007 23576,6917.835,95.437,541.188,538.211,0.0
52992.0,STARLINK-4269,PAYLOAD,2022-12-06 11:05:20,15.08842149,0.0002602,53.2165,42.7878,31.8544,328.2605,-3.9037e-06,-3.51e-06,0.0,0 STARLINK-4269,1 52992U 22076G   22340.46204310 -.00000351  00000-0 -39037-5 0  9993,2 52992  53.2165  42.7878 0002602  31.8544 328.2605 15.08842149 23645,6917.874,95.437,541.539,537.939,0.0
52992.0,STARLINK-4269,PAYLOAD,2022-12-06 12:40:44,15.08834156,0.0002644,53.2167,42.4907,29.1763,330.9377,-4.9439e-06,-3.67e-06,0.0,0 STARLINK-4269,1 52992U 22076G   22340.52828754 -.00000367  00000-0 -49439-5 0  9998,2 52992  53.2167  42.4907 0002644  29.1763 330.9377 15.08834156 23180,6917.898,95.438,541.592,537.934,0.0
52992.0,STARLINK-4269,PAYLOAD,2022-12-06 19:02:16,15.0883238,0.0002223,53.2171,41.3012,31.1688,328.9435,0.00014301,1.988e-05,0.0,0 STARLINK-4269,1 52992U 22076G   22340.79324681  .00001988  00000-0  14301-3 0  9993,2 52992  53.2171  41.3012 0002223  31.1688 328.9435 15.08832380 23226,6917.904,95.438,541.307,538.231,0.0
52992.0,STARLINK-4269,PAYLOAD,2022-12-07 15:42:18,15.08828323,0.0002542,53.2168,37.4357,27.7503,332.3624,-4.3785e-05,-9.85e-06,0.0,0 STARLINK-4269,1 52992U 22076G   22341.65437527 -.00000985  00000-0 -43785-4 0  9990,2 52992  53.2168  37.4357 0002542  27.7503 332.3624 15.08828323 23828,6917.916,95.438,541.54,538.023,0.0
52992.0,STARLINK-4269,PAYLOAD,2022-12-07 20:28:27,15.08834895,0.0002608,53.2169,36.5434,27.7598,332.3533,-3.7411e-05,-8.84e-06,0.0,0 STARLINK-4269,1 52992U 22076G   22341.85309235 -.00000884  00000-0 -37411-4 0  9993,2 52992  53.2169  36.5434 0002608  27.7598 332.3533 15.08834895 23383,6917.896,95.438,541.565,537.957,0.0
52992.0,STARLINK-4269,PAYLOAD,2022-12-08 02:49:59,15.08842959,0.0002634999999999,53.2169,35.3536,27.7254,332.3878,-1.1814e-05,-4.77e-06,0.0,0 STARLINK-4269,1 52992U 22076G   22342.11804679 -.00000477  00000-0 -11814-4 0  9992,2 52992  53.2169  35.3536 0002635  27.7254 332.3878 15.08842959 23890,6917.871,95.437,541.559,537.913,0.0
52992.0,STARLINK-4269,PAYLOAD,2022-12-08 12:22:17,15.08854061,0.0002651,53.2164,33.5697,29.2987,330.8154,0.00029497,4.411e-05,0.0,0 STARLINK-4269,1 52992U 22076G   22342.51547986  .00004411  00000-0  29497-3 0  9996,2 52992  53.2164  33.5697 0002651  29.2987 330.8154 15.08854061 23483,6917.837,95.437,541.536,537.868,0.0
